H1 CPF  1  HTS 2022  1 10 12  5101 larets           NONE
H2  0304206 5557    27944 2022 01 10  0  0  0 2022 01 15  0  0  0   180 1 1  0 0 0
H5  0.0560 
H9 
10 0 59590  83880.00000  0    2996643.449    3603261.046   -5294051.023
10 0 59590  84060.00000  0    3844091.839    4056696.033   -4327233.168
10 0 59590  84240.00000  0    4561879.858    4342516.614   -3202414.857
10 0 59590  84420.00000  0    5119141.942    4453833.570   -1960422.261
10 0 59590  84600.00000  0    5490690.076    4390829.689    -646563.702
10 0 59590  84780.00000  0    5658188.033    4160649.850     691029.292
10 0 59590  84960.00000  0    5611063.506    3776994.288    2003203.653
10 0 59590  85140.00000  0    5347105.706    3259425.845    3241653.090
10 0 59590  85320.00000  0    4872702.689    2632425.133    4360765.849
10 0 59590  85500.00000  0    4202704.085    1924243.580    5319358.273
10 0 59590  85680.00000  0    3359925.558    1165622.061    6082218.027
10 0 59590  85860.00000  0    2374315.639     388438.596    6621399.093
10 0 59590  86040.00000  0    1281838.551    -375645.850    6917216.875
10 0 59590  86220.00000  0     123123.755   -1096483.928    6958938.859
10 0 59591      0.00000  0   -1058075.179   -1746638.674    6745147.965
10 0 59591    180.00000  0   -2216550.064   -2302433.282    6283771.108
10 0 59591    360.00000  0   -3307374.480   -2744816.075    5591784.999
10 0 59591    540.00000  0   -4287663.486   -3060021.890    4694614.368
10 0 59591    720.00000  0   -5118292.076   -3240004.788    3625210.530
10 0 59591    900.00000  0   -5765488.865   -3282618.997    2422844.870
10 0 59591   1080.00000  0   -6202243.418   -3191546.344    1131659.558
10 0 59591   1260.00000  0   -6409457.758   -2975971.787    -200983.722
10 0 59591   1440.00000  0   -6376777.801   -2650018.245   -1526284.716
10 0 59591   1620.00000  0   -6103061.375   -2231972.910   -2795838.042
10 0 59591   1800.00000  0   -5596458.236   -1743348.295   -3963429.224
10 0 59591   1980.00000  0   -4874113.967   -1207833.018   -4986716.035
10 0 59591   2160.00000  0   -3961521.989    -650186.394   -5828732.918
10 0 59591   2340.00000  0   -2891561.806     -95130.324   -6459167.402
10 0 59591   2520.00000  0   -1703277.141     433709.923   -6855373.719
10 0 59591   2700.00000  0    -440448.542     914772.383   -7003111.710
10 0 59591   2880.00000  0     849987.555    1329404.119   -6897006.389
10 0 59591   3060.00000  0    2119629.559    1662562.134   -6540734.348
10 0 59591   3240.00000  0    3320379.234    1903352.746   -5946929.474
10 0 59591   3420.00000  0    4406232.244    2045390.779   -5136794.639
10 0 59591   3600.00000  0    5335036.824    2086966.916   -4139428.119
10 0 59591   3780.00000  0    6070165.438    2031016.338   -2990860.783
10 0 59591   3960.00000  0    6582024.599    1884883.023   -1732818.011
10 0 59591   4140.00000  0    6849332.131    1659885.920    -411231.894
10 0 59591   4320.00000  0    6860082.066    1370699.087     925450.286
10 0 59591   4500.00000  0    6612133.045    1034574.720    2228087.155
10 0 59591   4680.00000  0    6113387.745     670448.162    3448714.180
10 0 59591   4860.00000  0    5381538.311     297970.042    4542377.790
10 0 59591   5040.00000  0    4443393.581     -63477.515    5468839.428
10 0 59591   5220.00000  0    3333831.196    -395729.600    6194079.661
10 0 59591   5400.00000  0    2094427.136    -682703.679    6691541.103
10 0 59591   5580.00000  0     771839.266    -911140.268    6943076.125
10 0 59591   5760.00000  0    -583994.048   -1071192.542    6939579.523
10 0 59591   5940.00000  0   -1921767.075   -1156840.522    6681288.289
10 0 59591   6120.00000  0   -3190759.740   -1166115.016    6177753.495
10 0 59591   6300.00000  0   -4342771.164   -1101124.052    5447495.549
10 0 59591   6480.00000  0   -5333979.526    -967887.103    4517343.330
10 0 59591   6660.00000  0   -6126650.688    -775981.646    3421460.479
10 0 59591   6840.00000  0   -6690618.530    -538015.218    2200092.043
10 0 59591   7020.00000  0   -7004479.285    -268947.877     898075.810
10 0 59591   7200.00000  0   -7056437.652      14701.458    -436838.664
10 0 59591   7380.00000  0   -6844752.331     295723.939   -1755787.637
10 0 59591   7560.00000  0   -6377762.255     557119.355   -3010621.868
10 0 59591   7740.00000  0   -5673504.929     782976.370   -4155688.263
10 0 59591   7920.00000  0   -4758943.279     959291.521   -5149490.496
10 0 59591   8100.00000  0   -3668855.843    1074684.771   -5956154.356
10 0 59591   8280.00000  0   -2444457.852    1120979.470   -6546656.133
10 0 59591   8460.00000  0   -1131820.633    1093625.008   -6899788.711
10 0 59591   8640.00000  0     219848.831     991952.129   -7002851.308
10 0 59591   8820.00000  0    1560005.733     819251.649   -6852060.914
10 0 59591   9000.00000  0    2838602.896     582674.983   -6452692.704
10 0 59591   9180.00000  0    4007918.049     292957.321   -5818930.291
10 0 59591   9360.00000  0    5024313.822     -36030.382   -4973426.875
10 0 59591   9540.00000  0    5849882.395    -387888.363   -3946581.763
10 0 59591   9720.00000  0    6453916.412    -744435.568   -2775527.451
10 0 59591   9900.00000  0    6814136.047   -1086571.266   -1502844.734
10 0 59591  10080.00000  0    6917608.308   -1395212.329    -175034.993
10 0 59591  10260.00000  0    6761297.319   -1652259.291    1159197.115
10 0 59591  10440.00000  0    6352205.466   -1841541.744    2450780.735
10 0 59591  10620.00000  0    5707085.819   -1949690.089    3652152.083
10 0 59591  10800.00000  0    4851734.745   -1966882.664    4719071.103
10 0 59591  10980.00000  0    3819908.409   -1887428.992    5612293.114
10 0 59591  11160.00000  0    2651926.250   -1710158.724    6299031.736
10 0 59591  11340.00000  0    1393027.958   -1438601.032    6754153.925
10 0 59591  11520.00000  0      91568.244   -1080947.914    6961072.704
10 0 59591  11700.00000  0   -1202876.552    -649801.880    6912318.302
10 0 59591  11880.00000  0   -2441413.691    -161720.192    6609780.568
10 0 59591  12060.00000  0   -3577689.334     363428.609    6064628.066
10 0 59591  12240.00000  0   -4569638.805     903273.946    5296906.602
10 0 59591  12420.00000  0   -5381073.678    1433888.772    4334819.200
10 0 59591  12600.00000  0   -5983041.934    1930837.075    3213701.876
10 0 59591  12780.00000  0   -6354900.943    2370277.763    1974725.615
10 0 59591  12960.00000  0   -6485059.028    2730074.152     663368.939
10 0 59591  13140.00000  0   -6371345.653    2990854.758    -672288.074
10 0 59591  13320.00000  0   -6020986.045    3136967.307   -1983372.080
10 0 59591  13500.00000  0   -5450186.529    3157278.018   -3222045.899
10 0 59591  13680.00000  0   -4683352.769    3045775.349   -4343277.342
10 0 59591  13860.00000  0   -3751992.578    2801950.088   -5306465.764
10 0 59591  14040.00000  0   -2693371.654    2430940.941   -6076865.517
10 0 59591  14220.00000  0   -1548996.326    1943448.291   -6626769.355
10 0 59591  14400.00000  0    -362984.667    1355422.275   -6936428.763
10 0 59591  14580.00000  0     819605.595     687541.378   -6994694.346
10 0 59591  14760.00000  0    1954441.190     -35498.049   -6799382.743
10 0 59591  14940.00000  0    2999532.050    -785867.156   -6357362.199
10 0 59591  15120.00000  0    3916754.051   -1533640.315   -5684350.433
10 0 59591  15300.00000  0    4673235.144   -2247953.067   -4804427.894
10 0 59591  15480.00000  0    5242564.473   -2898254.316   -3749263.205
10 0 59591  15660.00000  0    5605772.403   -3455604.431   -2557050.831
10 0 59591  15840.00000  0    5752036.414   -3893962.715   -1271179.907
10 0 59591  16020.00000  0    5679067.011   -4191402.950      61331.081
10 0 59591  16200.00000  0    5393143.157   -4331192.960    1391577.943
10 0 59591  16380.00000  0    4908781.332   -4302674.720    2670622.259
10 0 59591  16560.00000  0    4248047.556   -4101886.057    3851360.337
10 0 59591  16740.00000  0    3439553.541   -3731892.989    4890317.674
10 0 59591  16920.00000  0    2517187.467   -3202816.225    5749291.763
10 0 59591  17100.00000  0    1518650.235   -2531548.647    6396769.999
10 0 59591  17280.00000  0     483871.874   -1741184.429    6809072.480
10 0 59591  17460.00000  0    -546616.895    -860190.261    6971187.281
10 0 59591  17640.00000  0   -1533289.025      78648.064    6877284.799
10 0 59591  17820.00000  0   -2439145.326    1039464.420    6530905.702
10 0 59591  18000.00000  0   -3231109.159    1984693.575    5944821.981
10 0 59591  18180.00000  0   -3881246.302    2876548.314    5140576.608
10 0 59591  18360.00000  0   -4367771.100    3678543.544    4147709.885
10 0 59591  18540.00000  0   -4675799.565    4357006.791    3002686.244
10 0 59591  18720.00000  0   -4797815.918    4882511.580    1747553.088
10 0 59591  18900.00000  0   -4733826.714    5231166.269     428374.713
10 0 59591  19080.00000  0   -4491198.564    5385687.938    -906495.238
10 0 59591  19260.00000  0   -4084187.704    5336211.735   -2208233.020
10 0 59591  19440.00000  0   -3533177.950    5080785.874   -3429372.583
10 0 59591  19620.00000  0   -2863679.539    4625533.785   -4525552.567
10 0 59591  19800.00000  0   -2105146.936    3984482.904   -5457107.445
10 0 59591  19980.00000  0   -1289684.445    3179088.598   -6190448.869
10 0 59591  20160.00000  0    -450698.407    2237478.473   -6699208.963
10 0 59591  20340.00000  0     378449.413    1193449.659   -6965113.013
10 0 59591  20520.00000  0    1165733.483      85265.676   -6978574.139
10 0 59591  20700.00000  0    1881666.949   -1045712.870   -6739009.691
10 0 59591  20880.00000  0    2500377.834   -2156527.146   -6254871.262
10 0 59591  21060.00000  0    3000531.173   -3204205.446   -5543394.456
10 0 59591  21240.00000  0    3366075.356   -4147402.633   -4630065.708
10 0 59591  21420.00000  0    3586781.101   -4948037.797   -3547789.809
10 0 59591  21600.00000  0    3658548.708   -5572860.761   -2335780.637
10 0 59591  21780.00000  0    3583469.756   -5994890.387   -1038188.955
99
